FENGYUN 1C DEB          
1 30600U 99025AMF 17345.59680686  .00000861  00000-0  46960-3 0  9995
2 30600  98.3800 210.2008 0453060 315.3680  69.0476 13.72632787541026
